NORAD_CAT_ID,OBJECT_NAME,OBJECT_TYPE,EPOCH,MEAN_MOTION,ECCENTRICITY,INCLINATION,RA_OF_ASC_NODE,ARG_OF_PERICENTER,MEAN_ANOMALY,BSTAR,MEAN_MOTION_DOT,MEAN_MOTION_DDOT,TLE_LINE0,TLE_LINE1,TLE_LINE2,SEMIMAJOR_AXIS,PERIOD,APOGEE,PERIGEE,DECAYED
55948.0,STARLINK-5900,PAYLOAD,2023-10-08 14:00:01,14.99296792,0.0003205,70.0004,331.2514,272.8232,245.8207,0.00029755,3.548e-05,0.0,0 STARLINK-5900,1 55948U 23037AL  23281.58334491  .00003548  00000-0  29755-3 0  9990,2 55948  70.0004 331.2514 0003205 272.8232 245.8207 14.99296792  5808,6947.205,96.045,571.296,566.843,0.0
55948.0,STARLINK-5900,PAYLOAD,2023-10-08 22:00:00,14.99273817,0.0003153,70.0005,330.4097,268.7169,248.5831,0.0039015,0.00047939,0.0,0 STARLINK-5900,1 55948U 23037AL  23281.91667824  .00047939  00000-0  39015-2 0  9997,2 55948  70.0005 330.4097 0003153 268.7169 248.5831 14.99273817 32582,6947.276,96.046,571.331,566.95,0.0
55948.0,STARLINK-5900,PAYLOAD,2023-10-09 08:30:34,14.9930352,0.0002829,69.9989,329.3042,269.7284,90.3552,2.1715e-06,-6.7e-07,0.0,0 STARLINK-5900,1 55948U 23037AL  23282.35456154 -.00000067  00000-0  21715-5 0  9991,2 55948  69.9989 329.3042 0002829 269.7284  90.3552 14.99303520 32640,6947.184,96.045,571.014,567.084,0.0
55948.0,STARLINK-5900,PAYLOAD,2023-10-09 13:18:46,14.99302562,0.0002875,69.9989,328.8003,268.1999,91.8831,5.7391e-05,6.08e-06,0.0,0 STARLINK-5900,1 55948U 23037AL  23282.55471027  .00000608  00000-0  57391-4 0  9997,2 55948  69.9989 328.8003 0002875 268.1999  91.8831 14.99302562 32335,6947.187,96.045,571.049,567.055,0.0
55948.0,STARLINK-5900,PAYLOAD,2023-10-10 10:07:42,14.99327475,0.0002245,69.999,326.6101,246.8671,113.2252,-0.00029241,-3.672e-05,0.0,0 STARLINK-5900,1 55948U 23037AL  23283.42201964 -.00003672  00000-0 -29241-3 0  9993,2 55948  69.9990 326.6101 0002245 246.8671 113.2252 14.99327475 32801,6947.11,96.043,570.535,567.415,0.0
55948.0,STARLINK-5900,PAYLOAD,2023-10-10 13:19:51,14.99306046,0.0002642,69.9988,326.2729,258.904,101.1823,6.6235e-05,7.17e-06,0.0,0 STARLINK-5900,1 55948U 23037AL  23283.55545649  .00000717  00000-0  66235-4 0  9998,2 55948  69.9988 326.2729 0002642 258.9040 101.1823 14.99306046 32480,6947.176,96.044,570.877,567.206,0.0
55948.0,STARLINK-5900,PAYLOAD,2023-10-11 02:08:26,14.99300508,0.0002371,69.9998,324.9248,269.2221,90.8667,-4.5586e-05,-6.51e-06,0.0,0 STARLINK-5900,1 55948U 23037AL  23284.08919799 -.00000651  00000-0 -45586-4 0  9993,2 55948  69.9998 324.9248 0002371 269.2221  90.8667 14.99300508 32901,6947.193,96.045,570.705,567.411,0.0
55948.0,STARLINK-5900,PAYLOAD,2023-10-11 11:44:52,14.99295793,0.0002522,69.9986,323.9129,265.7965,94.2906,-5.7295e-05,-7.95e-06,0.0,0 STARLINK-5900,1 55948U 23037AL  23284.48950218 -.00000795  00000-0 -57295-4 0  9997,2 55948  69.9986 323.9129 0002522 265.7965  94.2906 14.99295793 32621,6947.208,96.045,570.825,567.321,0.0
55948.0,STARLINK-5900,PAYLOAD,2023-10-12 05:21:40,14.99301962,0.0002828,69.9979,322.0592,270.0933,89.9903,-5.725e-05,-7.94e-06,0.0,0 STARLINK-5900,1 55948U 23037AL  23285.22338290 -.00000794  00000-0 -57250-4 0  9990,2 55948  69.9979 322.0592 0002828 270.0933  89.9903 14.99301962 33074,6947.189,96.045,571.018,567.089,0.0
55948.0,STARLINK-5900,PAYLOAD,2023-10-12 11:45:57,14.99306532,0.0002585,69.998,321.3857,265.4006,94.6858,-6.9605e-05,-9.46e-06,0.0,0 STARLINK-5900,1 55948U 23037AL  23285.49024751 -.00000946  00000-0 -69605-4 0  9999,2 55948  69.9980 321.3857 0002585 265.4006  94.6858 14.99306532 32777,6947.175,96.044,570.836,567.244,0.0
55948.0,STARLINK-5900,PAYLOAD,2023-10-12 19:46:18,14.99315374,0.0002923,69.9979,320.5425,271.5697,88.5127,-0.00021176,-2.685e-05,0.0,0 STARLINK-5900,1 55948U 23037AL  23285.82382762 -.00002685  00000-0 -21176-3 0  9997,2 55948  69.9979 320.5425 0002923 271.5697  88.5127 14.99315374 33166,6947.147,96.044,571.043,566.982,0.0
55948.0,STARLINK-5900,PAYLOAD,2023-10-13 03:46:40,14.99296933,0.0002867,69.998,319.7002,270.4108,89.6723,5.1281e-05,5.34e-06,0.0,0 STARLINK-5900,1 55948U 23037AL  23286.15741754  .00000534  00000-0  51281-4 0  9994,2 55948  69.9980 319.7002 0002867 270.4108  89.6723 14.99296933 33210,6947.204,96.045,571.061,567.078,0.0
55948.0,STARLINK-5900,PAYLOAD,2023-10-13 11:47:02,14.99299817,0.0002839,69.9985,318.8586,270.2408,89.8427,8.8269e-05,9.86e-06,0.0,0 STARLINK-5900,1 55948U 23037AL  23286.49099905  .00000986  00000-0  88269-4 0  9992,2 55948  69.9985 318.8586 0002839 270.2408  89.8427 14.99299817 32926,6947.195,96.045,571.033,567.088,0.0
55948.0,STARLINK-5900,PAYLOAD,2023-10-14 03:47:45,14.99302722,0.0002869,69.9983,317.1738,270.1068,89.9763,5.8751e-05,6.25e-06,0.0,0 STARLINK-5900,1 55948U 23037AL  23287.15816466  .00000625  00000-0  58751-4 0  9998,2 55948  69.9983 317.1738 0002869 270.1068  89.9763 14.99302722 33362,6947.186,96.045,571.045,567.058,0.0
55948.0,STARLINK-5900,PAYLOAD,2023-10-14 11:48:06,14.99306248,0.00029,69.9985,316.3317,271.4814,88.6014,7.5579e-05,8.31e-06,0.0,0 STARLINK-5900,1 55948U 23037AL  23287.49174510  .00000831  00000-0  75579-4 0  9998,2 55948  69.9985 316.3317 0002900 271.4814  88.6014 14.99306248 33077,6947.176,96.044,571.055,567.026,0.0
55948.0,STARLINK-5900,PAYLOAD,2023-10-14 19:48:27,14.99385535,0.0002767,70.0006,315.4889,262.2192,97.8653,-0.0016014,-0.00019677,0.0,0 STARLINK-5900,1 55948U 23037AL  23287.82531546 -.00019677  00000-0 -16014-2 0  9998,2 55948  70.0006 315.4889 0002767 262.2192  97.8653 14.99385535 33466,6946.931,96.039,570.718,566.873,0.0
55948.0,STARLINK-5900,PAYLOAD,2023-10-15 03:48:51,14.99288582,0.0002924,69.998,314.6459,268.709,91.3735,-0.000119,-1.549e-05,0.0,0 STARLINK-5900,1 55948U 23037AL  23288.15893021 -.00001549  00000-0 -11900-3 0  9993,2 55948  69.9980 314.6459 0002924 268.7090  91.3735 14.99288582 33511,6947.23,96.046,571.127,567.064,0.0
55948.0,STARLINK-5900,PAYLOAD,2023-10-15 11:49:13,14.99291337,0.0002921,69.9979,313.8034,268.7979,91.2846,-0.00013034,-1.688e-05,0.0,0 STARLINK-5900,1 55948U 23037AL  23288.49251478 -.00001688  00000-0 -13034-3 0  9998,2 55948  69.9979 313.8034 0002921 268.7979  91.2846 14.99291337 33224,6947.222,96.045,571.116,567.057,0.0
55948.0,STARLINK-5900,PAYLOAD,2023-10-16 03:49:56,14.99299768,0.0002971,69.9979,312.1185,269.0916,90.9904,-4.8365e-05,-6.86e-06,0.0,0 STARLINK-5900,1 55948U 23037AL  23289.15967737 -.00000686  00000-0 -48365-4 0  9997,2 55948  69.9979 312.1185 0002971 269.0916  90.9904 14.99299768 33668,6947.196,96.045,571.125,566.997,0.0
55948.0,STARLINK-5900,PAYLOAD,2023-10-16 11:50:17,14.99300742,0.0002806,69.9984,311.276,266.4376,93.6463,4.2778e-05,4.3e-06,0.0,0 STARLINK-5900,1 55948U 23037AL  23289.49325857  .00000430  00000-0  42778-4 0  9992,2 55948  69.9984 311.2760 0002806 266.4376  93.6463 14.99300742 33374,6947.193,96.045,571.007,567.108,0.0
55948.0,STARLINK-5900,PAYLOAD,2023-10-17 10:15:17,14.99299961,0.0002666,69.9993,308.9179,265.7143,94.3712,0.00019895,2.341e-05,0.0,0 STARLINK-5900,1 55948U 23037AL  23290.42729022  .00002341  00000-0  19895-3 0  9995,2 55948  69.9993 308.9179 0002666 265.7143  94.3712 14.99299961 33857,6947.195,96.045,570.912,567.208,0.0
55948.0,STARLINK-5900,PAYLOAD,2023-10-17 11:51:22,14.99300939,0.0002553,69.9992,308.7492,262.5363,97.5506,0.00021271,2.51e-05,0.0,0 STARLINK-5900,1 55948U 23037AL  23290.49400594  .00002510  00000-0  21271-3 0  9991,2 55948  69.9992 308.7492 0002553 262.5363  97.5506 14.99300939 33524,6947.192,96.045,570.831,567.283,0.0
55948.0,STARLINK-5900,PAYLOAD,2023-10-17 18:15:38,14.99346981,0.0002546,70.0004,308.0746,279.1619,80.9252,-0.00068989,-8.535e-05,0.0,0 STARLINK-5900,1 55948U 23037AL  23290.76086514 -.00008535  00000-0 -68989-3 0  9995,2 55948  70.0004 308.0746 0002546 279.1619  80.9252 14.99346981 33909,6947.05,96.042,570.683,567.146,0.0
55948.0,STARLINK-5900,PAYLOAD,2023-10-18 02:16:01,14.99297846,0.0002777,70.0,307.2333,261.4036,98.6809,-7.9035e-06,-1.91e-06,0.0,0 STARLINK-5900,1 55948U 23037AL  23291.09446378 -.00000191  00000-0 -79035-5 0  9996,2 55948  70.0000 307.2333 0002777 261.4036  98.6809 14.99297846 33618,6947.202,96.045,570.996,567.137,0.0
55948.0,STARLINK-5900,PAYLOAD,2023-10-18 10:16:23,14.99299267,0.0002607,69.9997,306.3907,262.5027,97.5836,-5.401e-06,-1.6e-06,0.0,0 STARLINK-5900,1 55948U 23037AL  23291.42804691 -.00000160  00000-0 -54010-5 0  9991,2 55948  69.9997 306.3907 0002607 262.5027  97.5836 14.99299267 34002,6947.197,96.045,570.873,567.251,0.0
55948.0,STARLINK-5900,PAYLOAD,2023-10-19 10:17:27,14.99311125,0.0002952,69.999,303.8636,267.6589,92.4232,-5.9745e-05,-8.25e-06,0.0,0 STARLINK-5900,1 55948U 23037AL  23292.42878940 -.00000825  00000-0 -59745-4 0  9997,2 55948  69.9990 303.8636 0002952 267.6589  92.4232 14.99311125 34156,6947.16,96.044,571.076,566.975,0.0
55948.0,STARLINK-5900,PAYLOAD,2023-10-19 18:17:49,14.99303344,0.0002767,70.0002,303.0202,272.7737,87.3106,-4.1347e-05,-6e-06,0.0,0 STARLINK-5900,1 55948U 23037AL  23292.76237703 -.00000600  00000-0 -41347-4 0  9990,2 55948  70.0002 303.0202 0002767 272.7737  87.3106 14.99303344 33864,6947.185,96.045,570.972,567.127,0.0
55948.0,STARLINK-5900,PAYLOAD,2023-10-20 02:18:11,14.99296382,0.0002944,69.9992,302.1789,270.5506,89.5316,-2.6969e-05,-4.24e-06,0.0,0 STARLINK-5900,1 55948U 23037AL  23293.09596445 -.00000424  00000-0 -26969-4 0  9995,2 55948  69.9992 302.1789 0002944 270.5506  89.5316 14.99296382 34250,6947.206,96.045,571.116,567.026,0.0
55948.0,STARLINK-5900,PAYLOAD,2023-10-20 10:18:33,14.99295144,0.0002957,69.9991,301.3353,269.6545,90.4276,-4.1467e-05,-6.01e-06,0.0,0 STARLINK-5900,1 55948U 23037AL  23293.42955044 -.00000601  00000-0 -41467-4 0  9993,2 55948  69.9991 301.3353 0002957 269.6545  90.4276 14.99295144 33961,6947.21,96.045,571.129,567.021,0.0
55948.0,STARLINK-5900,PAYLOAD,2023-10-21 02:19:16,14.99300929,0.0003033,69.9987,299.6503,268.0056,92.0756,3.6198e-07,-8.9e-07,0.0,0 STARLINK-5900,1 55948U 23037AL  23294.09671352 -.00000089  00000-0  36198-6 0  9990,2 55948  69.9987 299.6503 0003033 268.0056  92.0756 14.99300929 34407,6947.192,96.045,571.164,566.95,0.0
